139P/Vaisala-Oterma,e,2.3375,242.1824,165.8634,4.515750,0.1027092,0.24836179,241.1608,05/21.0/2024,2000,g  9.5,4.0
# From MPEC 2015-E14
140P/Bowell-Skiff,e,3.7674,343.3524,172.3038,6.406862,0.0607766,0.69600174,196.0883,05/21.0/2024,2000,g 11.5,6.0
# From MPEC 2022-K19
141P/Machholz,e,13.9559,241.8092,153.6056,3.057482,0.1843564,0.73607020,230.6059,05/21.0/2024,2000,g 12.0,12.0
# From MPEC 2015-KD9
141P-A/Machholz,e,13.9428,153.5444,241.8838,3.057613,0.1843445,0.73606931,230.5586,05/21.0/2024,2000,g 12.0,12.0
# From MPC 24216
141P-B/Machholz,e,13.9868,153.6201,241.7731,3.056000,0.1844905,0.73582755,231.9278,05/21.0/2024,2000,g  9.0,4.0
# From MPC 37026
141P-D/Machholz,e,13.8349,153.2713,242.1315,3.066077,0.1835817,0.73702298,226.4621,05/21.0/2024,2000,g  9.0,4.0
# From MPEC 2015-R12
141P-E/Machholz,e,12.8152,246.1856,149.2667,3.012914,0.1884620,0.75023267,359.9529,09/19.0/1994,2000,g  9.0,4.0
# From MPEC 2015-R12
141P-F/Machholz,e,12.7898,246.1881,149.2374,3.010224,0.1887147,0.75000946,359.9630,09/19.0/1994,2000,g  9.0,4.0
# From MPEC 2015-R12
141P-G/Machholz,e,12.8259,246.3146,149.0784,3.005818,0.1891298,0.74964304,359.9802,09/19.0/1994,2000,g  9.0,4.0
# From MPC 95735
141P-H/Machholz,e,12.8431,246.0900,149.4500,3.008012,0.1889230,0.74682218,359.9270,08/24.0/2015,2000,g 18.5,4.0
# From MPEC 2022-SU8
141P-I/Machholz,e,13.9428,153.4988,241.8940,3.048092,0.1852089,0.73529498,231.7525,05/21.0/2024,2000,g 17.5,4.0
# From MPEC 2024-C04
142P/Ge-Wang,e,12.2491,175.9458,174.0753,5.002585,0.0880871,0.49652394,97.3070,05/21.0/2024,2000,g  8.5,6.0
# From MPEC 2023-XP6
143P/Kowal-Mrkos,e,5.2117,243.5642,320.1667,4.273171,0.1115780,0.43105380,251.1171,05/21.0/2024,2000,g 13.5,2.0
# From MPEC 2024-JU4
144P/Kushida,e,3.9319,242.9248,216.3239,3.831257,0.1314293,0.63487851,15.2756,05/21.0/2024,2000,g  8.5,8.0
# From MPC108598
145P/Shoemaker-Levy,e,11.2774,26.8118,10.3222,4.132951,0.1173042,0.54261432,287.1796,05/21.0/2024,2000,g 13.5,4.0
# From MPC100284
146P/Shoemaker-LINEAR,e,23.1171,53.4198,317.0271,4.025958,0.1220113,0.64741497,350.6672,05/21.0/2024,2000,g 15.0,4.0
# From MPC 75720
147P/Kushida-Muramatsu,e,2.2914,92.1164,348.1020,4.010173,0.1227325,0.21234855,20.3679,05/21.0/2024,2000,g 14.0,4.0
# From MPEC 2024-JU4
148P/Anderson-LINEAR,e,3.6587,89.1966,8.0551,3.619792,0.1431129,0.55026174,101.1949,05/21.0/2024,2000,g 16.0,2.0
# From MPEC 2023-J29
149P/Mueller,e,34.2365,143.8325,30.3785,4.125114,0.1176387,0.32431929,249.3625,05/21.0/2024,2000,g  8.0,8.0
# From MPEC 2024-JU4
150P/LONEOS,e,18.5474,272.0581,246.1147,3.870298,0.1294456,0.54897849,9.0011,05/21.0/2024,2000,g 13.5,4.0
# From MPEC 2022-K19
151P/Helin,e,4.7274,143.1598,216.1383,5.764257,0.0712179,0.57322279,223.7168,05/21.0/2024,2000,g 10.0,6.0
# From MPEC 2024-JU4
152P/Helin-Lawrence,e,9.8783,91.7925,164.3838,4.483634,0.1038147,0.30794590,88.9993,05/21.0/2024,2000,g 11.5,4.0
# From MPC 46101
153P/Ikeya-Zhang,e,28.4096,93.7170,34.3560,50.35897,0.0027580,0.98999884,0.0000,03/06.3962/2002,2000,g  9.0,4.0
# From MPEC 2022-K19
154P/Brewington,e,17.6337,343.0160,47.9588,4.795310,0.0938597,0.67615241,357.9868,05/21.0/2024,2000,g  2.5,12.0
# From MPEC 2022-YN2
155P/Shoemaker,e,6.4081,97.1587,14.5194,6.571008,0.0585135,0.72733791,96.4187,05/21.0/2024,2000,g 10.0,4.8
# From MPEC 2023-J29
156P/Russell-LINEAR,e,17.2689,35.3418,0.5075,3.462504,0.1529744,0.61512649,195.7004,05/21.0/2024,2000,g 15.5,2.0
# From MPEC 2024-D33
157P/Tritton,e,12.4211,287.5156,155.1275,3.547030,0.1475390,0.55683634,91.3328,05/21.0/2024,2000,g 10.0,4.0
# From MPEC 2022-VC5
157P-B/Tritton,e,12.4248,153.9132,287.1484,3.102348,0.1803717,0.49990664,111.9821,05/21.0/2024,2000,g 15.7,4.0
# From MPEC 2024-D33
158P/Kowal-LINEAR,e,7.3070,126.5914,216.7331,5.568477,0.0750066,0.11675115,54.6730,05/21.0/2024,2000,g  9.0,4.0
# From MPEC 2024-DC6
159P/LONEOS,e,23.4896,54.9389,4.6583,5.853506,0.0695953,0.38280831,152.2555,05/21.0/2024,2000,g 10.0,4.0
# From MPEC 2022-K19
160P/LINEAR,e,15.6026,333.3707,12.7894,3.778321,0.1342010,0.52546719,218.9748,05/21.0/2024,2000,g 15.5,2.0
# From MPC 75721
161P/Hartley-IRAS,e,95.8214,1.5567,47.0648,7.712984,0.0460119,0.83565990,317.6163,05/21.0/2024,2000,g  8.5,6.0
# From MPEC 2024-JU4
162P/SidingSpring,e,27.5623,30.8870,357.2187,3.092134,0.1812661,0.58311025,228.2844,05/21.0/2024,2000,g 12.0,4.0
# From MPEC 2021-S45
163P/NEAT,e,12.7196,102.0699,349.5807,3.762802,0.1350321,0.45325970,236.1878,05/21.0/2024,2000,g 14.5,4.0
# From MPEC 2021-F20
164P/Christensen,e,16.2728,88.3050,325.8928,3.652253,0.1412091,0.54124778,307.5593,05/21.0/2024,2000,g 11.0,4.0
# From MPC 75721
165P/LINEAR,e,15.9004,0.7802,125.7765,17.81822,0.0131041,0.61825672,114.7231,05/21.0/2024,2000,g 11.5,2.0
# From MPC 75722
166P/NEAT,e,15.3799,64.4298,321.7486,13.82690,0.0191698,0.38411784,153.6532,05/21.0/2024,2000,g  5.5,4.0
# From MPEC 2023-J29
167P/CINEOS,e,19.0853,295.8031,344.6893,16.25863,0.0150341,0.26826743,126.8606,05/21.0/2024,2000,g  9.5,2.0
# From MPEC 2023-J29
168P/Hergenrother,e,21.6027,355.4146,15.0812,3.586845,0.1450892,0.62151054,253.3505,05/21.0/2024,2000,g 15.5,4.0
# From MPEC 2023-J95
169P/NEAT,e,11.2933,176.0893,218.0862,2.603377,0.2346380,0.76827130,159.8425,05/21.0/2024,2000,g 16.0,2.0
# From MPEC 2024-GJ3
170P/Christensen,e,10.1153,142.6963,225.0958,4.204584,0.1143193,0.30552887,45.6803,05/21.0/2024,2000,g 12.0,4.0
# From MPC102102
171P/Spahr,e,21.9501,101.6993,347.0664,3.552508,0.1471978,0.50260986,287.5698,05/21.0/2024,2000,g 13.5,4.0
# From MPEC 2024-JU4
172P/Yeung,e,11.2250,30.8781,209.0237,4.220645,0.1136674,0.20453036,299.6128,05/21.0/2024,2000,g 13.0,4.0
# From MPEC 2023-N01
173P/Mueller,e,16.4909,100.3553,29.1939,5.712739,0.0721834,0.26205104,63.9671,05/21.0/2024,2000,g  7.5,4.0
# From MPC 92985
174P/Echeclus,e,4.3429,173.3018,163.4417,10.75603,0.0279400,0.45583799,92.6122,05/21.0/2024,2000,g  9.4,2.0
# From MPC114608
175P/Hergenrother,e,4.9134,110.0708,75.1206,3.674628,0.1399214,0.37948122,243.2410,05/21.0/2024,2000,g 14.0,4.0
# From MPC 89015
176P/LINEAR,e,0.2313,345.6304,34.4484,3.194465,0.1726263,0.19221485,94.5762,05/21.0/2024,2000,g 15.1,2.0
# From MPEC 2020-L06
177P/Barnard,e,31.0442,271.9427,60.6339,24.51652,0.0081192,0.95466951,52.5234,05/21.0/2024,2000,g 15.0,4.0
# From MPEC 2021-F20
178P/Hug-Bell,e,11.0903,102.7964,297.9293,3.632792,0.1423453,0.48251954,199.7347,05/21.0/2024,2000,g 14.6,4.0
# From MPEC 2024-EF7
179P/Jedicke,e,19.8933,115.5143,297.1143,5.935093,0.0681652,0.30577571,49.1052,05/21.0/2024,2000,g  2.5,8.0
# From MPEC 2024-F34
180P/NEAT,e,16.8614,84.5597,94.6432,3.868367,0.1295426,0.35358840,40.6625,05/21.0/2024,2000,g 11.0,4.0
# From MPC 89012
181P/Shoemaker-Levy,e,17.4824,35.4225,336.2910,3.877814,0.1290695,0.70028221,111.4281,05/21.0/2024,2000,g 11.5,4.0
# From MPEC 2014-J10
182P/LONEOS,e,16.2319,72.4501,54.2050,2.949381,0.1945843,0.66360258,143.9118,05/21.0/2024,2000,g 18.0,4.0
# From MPEC 2023-A50
183P/Korlevic-Juric,e,18.7988,3.8315,164.5061,4.690871,0.0970116,0.10317702,240.6526,05/21.0/2024,2000,g 12.5,2.0
# From MPEC 2020-W26
184P/Lovas,e,4.5727,173.2755,186.5599,3.799323,0.1330898,0.55038985,173.3984,05/21.0/2024,2000,g 13.5,4.0
# From MPEC 2024-F91
185P/Petriew,e,14.0145,214.1152,181.8997,3.098658,0.1806940,0.69968329,56.5770,05/21.0/2024,2000,g 15.0,4.0
# From MPEC 2022-X67
186P/Garradd,e,28.6264,326.0992,268.9996,4.851813,0.0922249,0.12424585,182.0759,05/21.0/2024,2000,g  7.5,4.0
# From MPEC 2020-SI8
187P/LINEAR,e,13.6516,109.8472,131.1872,4.559059,0.1012491,0.15415191,222.9246,05/21.0/2024,2000,g  9.0,4.0
# From MPEC 2023-J29
188P/LINEAR-Mueller,e,10.5238,358.9362,26.7555,4.367712,0.1079750,0.41692320,285.2788,05/21.0/2024,2000,g 11.5,4.0
# From MPEC 2022-QD9
189P/NEAT,e,20.0949,281.6725,16.2546,2.942857,0.1952317,0.58928066,123.2189,05/21.0/2024,2000,g 19.0,4.0
# From MPEC 2020-K19
190P/Mueller,e,2.1747,335.5598,50.4526,4.227056,0.1134089,0.52221324,335.3776,05/21.0/2024,2000,g 13.0,4.0
# From MPEC 2022-X67
191P/McNaught,e,8.8390,98.1906,284.2405,3.639573,0.1419477,0.38564506,164.2978,05/21.0/2024,2000,g 13.0,4.0
# From MPC 75724
192P/Shoemaker-Levy,e,24.5849,51.6550,313.0463,6.460859,0.0600162,0.77333145,359.7977,05/21.0/2024,2000,g 15.0,4.0
# From MPEC 2024-JU4
193P/LINEAR-NEAT,e,10.6836,335.1877,8.1357,3.578281,0.1456104,0.39309513,145.6442,05/21.0/2024,2000,g 14.0,4.0
# From MPEC 2024-GJ3
194P/LINEAR,e,11.8058,349.5253,128.5670,4.119976,0.1178588,0.56320696,12.5836,05/21.0/2024,2000,g 16.0,4.0
# From MPEC 2024-GJ3
195P/Hill,e,36.4235,243.1127,250.1351,6.475896,0.0598073,0.31371887,333.8250,05/21.0/2024,2000,g  8.5,4.0
# From MPEC 2024-GJ3
196P/Tichy,e,19.3009,24.1158,12.0905,3.804567,0.1328147,0.42791576,75.6566,05/21.0/2024,2000,g 13.5,4.0
# From MPEC 2023-UR6
197P/LINEAR,e,25.6317,66.2440,189.2000,2.880468,0.2016088,0.62899187,106.7855,05/21.0/2024,2000,g 16.5,2.0
# From NK 1596
198P/ODAS,e,1.3388,358.2043,69.2899,3.594280,0.1446393,0.44476953,286.7154,05/21.0/2024,2000,g  9.0,4.0
# From MPEC 2024-GJ3
199P/Shoemaker,e,24.9387,92.3486,191.7714,5.877693,0.0691662,0.50483067,19.8814,05/21.0/2024,2000,g 10.0,4.0
# From MPEC 2022-C56
200P/Larsen,e,12.0964,234.8042,134.3687,4.950261,0.0894874,0.33195414,157.2228,05/21.0/2024,2000,g  9.0,4.0
# From MPC 93588
201P/LONEOS,e,5.7397,41.5391,19.7683,3.354763,0.1604025,0.63758905,174.7819,05/21.0/2024,2000,g 14.0,4.0
# From MPEC 2023-XP6
202P/Scotti,e,2.1415,177.3131,274.4939,4.103347,0.1185760,0.25190819,0.4258,05/21.0/2024,2000,g 13.5,4.0
# From MPEC 2021-S45
203P/Korlevic,e,2.9743,290.2498,154.8442,4.668605,0.0977065,0.31627175,150.1568,05/21.0/2024,2000,g 14.5,2.0
# From MPEC 2024-JU4
204P/LINEAR-NEAT,e,6.5965,108.4826,356.6909,3.583500,0.1452924,0.48815421,80.0571,05/21.0/2024,2000,g 14.0,4.0
# From MPEC 2023_O39
205P/Giacobini,e,15.3044,179.6130,154.1834,3.542619,0.1478146,0.56752134,126.9277,05/21.0/2024,2000,g 13.0,4.0
# From MPC 75725
206P/Barnard-Boattini,e,33.6333,202.3518,189.5548,3.490978,0.1511066,0.55142381,177.2472,05/21.0/2024,2000,g 19.0,4.0
# From MPEC 2024-JU4
